TECHSAT 1B (GO-32)      
1 25397U 98043D   24164.17850512  .00000202  00000+0  10770-3 0  9997
2 25397  98.9211 130.8266 0001758 135.2378 224.8942 14.24055146346921
SCD 2                   
1 25504U 98060A   24163.48179904  .00000684  00000+0  14204-3 0  9998
2 25504  24.9959 287.1624 0016742 272.2868 152.4124 14.44783007353784
LANDSAT 7               
1 25682U 99020A   24164.23308883  .00000868  00000+0  18704-3 0  9999
2 25682  97.8874 191.2558 0001554  80.4628  49.5308 14.60694496338475
DLR-TUBSAT              
1 25757U 99029B   24163.85830118  .00000335  00000+0  94788-4 0  9995
2 25757  98.5856 127.6597 0015476  69.2201 291.0650 14.51910920326623
TERRA                   
1 25994U 99068A   24164.15660814  .00000901  00000+0  19800-3 0  9999
2 25994  98.0481 227.7921 0002709  50.3246  29.1016 14.59806866302433
MAROC-TUBSAT            
1 27004U 01056D   24163.41859161 -.00000001  00000+0  51536-4 0  9991
2 27004  99.7328 317.8363 0019236 227.1368 187.6941 13.70206128125424
AQUA                    
1 27424U 02022A   24164.17478064  .00001767  00000+0  38339-3 0  9998
2 27424  98.3302 113.5251 0002110  96.5618  28.2273 14.59371062175985
IRS-P6 (RESOURCESAT-1)  
1 28051U 03046A   24164.15152545  .00000418  00000+0  15605-3 0  9996
2 28051  98.2938 221.6311 0065275  25.4237  51.9649 14.35481785 75070
SHIYAN 1 (SY-1)         
1 28220U 04012A   24164.02898610  .00010885  00000+0  64250-3 0  9993
2 28220  97.9644 191.5720 0010343  56.3789 303.8426 15.11677409 99396
AURA                    
1 28376U 04026A   24164.15692124  .00001735  00000+0  38223-3 0  9991
2 28376  98.2509 109.0281 0002277  83.4634 276.6824 14.58657864 58987
IRS-P5 (CARTOSAT-1)     
1 28649U 05017A   24164.16575479  .00002279  00000+0  26025-3 0  9990
2 28649  97.6134 207.8055 0001578  50.0681 310.0674 14.86998574 34480
SINAH 1                 
1 28893U 05043D   24164.20184357  .00000851  00000+0  17603-3 0  9992
2 28893  98.1938 288.0663 0015921  61.5641 298.7163 14.62753682993263
EROS B                  
1 29079U 06014A   24164.23584053  .00019363  00000+0  96827-3 0  9991
2 29079  97.3350 278.7055 0010752 220.3386 139.7052 15.17424028  6781
RESURS-DK 1             
1 29228U 06021A   24164.17601753  .00003963  00000+0  26871-3 0  9996
2 29228  69.9361  74.6050 0004008 336.4074  23.6905 15.07276262991596
ARIRANG-2 (KOMPSAT-2)   
1 29268U 06031A   24164.20753715  .00000583  00000+0  12090-3 0  9994
2 29268  97.8645  12.7344 0013423 241.2790 240.2054 14.63582217954012
LAPAN-TUBSAT            
1 29709U 07001A   24164.15401081  .00001247  00000+0  15625-3 0  9997
2 29709  98.0682 139.3042 0013826  60.8925 299.3671 14.84013363942065
HAIYANG-1B              
1 31113U 07010A   24164.27045565  .00000218  00000+0  99166-4 0  9993
2 31113  98.2944 166.5255 0012800 216.3696 143.6619 14.30614011896274
COSMO-SKYMED 1          
1 31598U 07023A   24164.14012716  .00000955  00000+0  12658-3 0  9990
2 31598  97.8868 347.3593 0001590  91.1338 269.0057 14.82143223920446
TERRASAR-X              
1 31698U 07026A   24163.57486824  .00003415  00000+0  16574-3 0  9990
2 31698  97.4454 170.8055 0001914  83.7962 276.3490 15.19147116942202
WORLDVIEW-1 (WV-1)      
1 32060U 07041A   24164.22249375  .00011422  00000+0  47175-3 0  9990
2 32060  97.3808 283.6363 0005079 304.6185  55.4573 15.24161921931045
YAOGAN-3                
1 32289U 07055A   24164.22558635  .00003653  00000+0  43258-3 0  9995
2 32289  97.8868 189.5781 0001338  85.3421 274.7947 14.85185646896594
COSMO-SKYMED 2          
1 32376U 07059A   24164.17387534  .00001674  00000+0  21683-3 0  9997
2 32376  97.8865 347.3893 0001361  83.3783 276.7585 14.82141642893201
RADARSAT-2              
1 32382U 07061A   24164.27386364  .00000150  00000+0  75178-4 0  9995
2 32382  98.5769 170.7159 0001273  90.3352 269.7976 14.29989924861030
CARTOSAT-2A             
1 32783U 08021A   24164.23509245  .00001659  00000+0  23252-3 0  9998
2 32783  97.8660 222.7816 0011234 343.0058  17.0775 14.78771097870275
HUANJING 1A (HJ-1A)     
1 33320U 08041A   24164.16046046  .00002661  00000+0  35747-3 0  9991
2 33320  97.6306 171.4219 0021077  32.0582 328.1907 14.79946500849619
HUANJING 1B (HJ-1B)     
1 33321U 08041B   24164.30076454  .00002069  00000+0  27483-3 0  9994
2 33321  97.6258 176.0936 0039941  72.9897 287.5686 14.80248796849654
GEOEYE 1                
1 33331U 08042A   24164.18628389  .00001130  00000+0  22170-3 0  9998
2 33331  98.1096 236.6024 0007090 171.5255 188.6069 14.64591581842582
THEOS                   
1 33396U 08049A   24164.16099529  .00000153  00000+0  92312-4 0  9992
2 33396  98.6576 230.1409 0001091  90.8885 269.2416 14.20080154813664
COSMO-SKYMED 3          
1 33412U 08054A   24164.14644499  .00005436  00000+0  46960-3 0  9993
2 33412  97.8759   0.8372 0015618 227.4134 132.5770 14.97558850846537
YAOGAN-4                
1 33446U 08061A   24164.15534472  .00002344  00000+0  31772-3 0  9998
2 33446  97.8791  96.1298 0013771 306.0028  53.9907 14.79804487836817
GOSAT (IBUKI)           
1 33492U 09002A   24164.20922703  .00000291  00000+0  59661-4 0  9996
2 33492  98.0380 275.8044 0001229 103.3174 256.8167 14.67561078824121
YAOGAN-6                
1 34839U 09021A   24163.87546739  .00022019  00000+0  42042-3 0  9992
2 34839  97.1708 131.4104 0016996 189.8798 170.2122 15.47980067842631
DEIMOS-1                
1 35681U 09041A   24164.23771450  .00001077  00000+0  17363-3 0  9990
2 35681  97.6802 346.4259 0002629  67.1799 292.9688 14.73328260798585
DUBAISAT-1              
1 35682U 09041B   24163.97379620  .00001781  00000+0  29414-3 0  9996
2 35682  97.9065 300.3746 0009840 269.8478  90.1601 14.71582208796872
OCEANSAT-2              
1 35931U 09051A   24164.13920391  .00000454  00000+0  33721-3 0  9992
2 35931  98.2648 213.4042 0017155 145.0274 215.2023 13.99471189776511
WORLDVIEW-2 (WV-2)      
1 35946U 09055A   24164.18465758  .00000318  00000+0  12235-3 0  9994
2 35946  98.4486 237.0899 0003038 240.7168 119.3715 14.36808225770176
SMOS                    
1 36036U 09059A   24164.12781982  .00000626  00000+0  21370-3 0  9995
2 36036  98.4429 351.1480 0001245  98.2199 261.9130 14.39736630767822
YAOGAN-7                
1 36110U 09069A   24164.19477773  .00000931  00000+0  14162-3 0  9996
2 36110  98.1063  40.0115 0024135 243.1213 116.7529 14.76248252781156
TANDEM-X                
1 36605U 10030A   24163.57486740  .00003098  00000+0  15066-3 0  9991
2 36605  97.4459 170.8063 0001917  95.3501 264.7952 15.19146034774957
CARTOSAT-2B             
1 36795U 10035A   24164.13641768  .00001688  00000+0  23634-3 0  9995
2 36795  97.8601 222.3272 0013406  60.0757 300.1784 14.78773869751301
YAOGAN-10               
1 36834U 10038A   24164.19926199  .00001357  00000+0  17426-3 0  9997
2 36834  97.9479 181.3626 0001457  85.0300 337.3569 14.82835129748267
COSMO-SKYMED 4          
1 37216U 10060A   24164.18656809  .00000979  00000+0  12960-3 0  9991
2 37216  97.8868 347.4058 0001519  89.7021 270.4366 14.82149038735756
RESOURCESAT-2           
1 37387U 11015A   24164.16526760  .00000334  00000+0  17130-3 0  9990
2 37387  98.5771 230.0666 0005379 124.1171 236.0518 14.21694154682278
HAIYANG-2A              
1 37781U 11043A   24164.26093572  .00000016  00000+0  58729-4 0  9997
2 37781  99.3250 167.8322 0001724  91.1742 268.9607 13.78784490645658
RASAT                   
1 37791U 11044D   24164.20199384  .00001041  00000+0  19676-3 0  9997
2 37791  98.0782 255.7637 0021259   3.4596  61.5043 14.66355302685412
SRMSAT                  
1 37841U 11058D   24164.24141750  .00000549  00000+0  15568-3 0  9994
2 37841  19.9701 186.6978 0011952  40.9661  36.2903 14.11125045654081
YAOGAN-13               
1 37941U 11072A   24164.18505325  .00028251  00000+0  62492-3 0  9994
2 37941  97.7189 147.6112 0003246  77.4047 282.7563 15.43781862695708
PLEIADES 1A             
1 38012U 11076F   24164.19526372  .00000810  00000+0  18409-3 0  9994
2 38012  98.2038 238.7379 0000998  94.9727 319.1046 14.58539415664868
ZIYUAN 1-02C (ZY 1-02C) 
1 38038U 11079A   24164.20095498  .00000869  00000+0  30868-3 0  9994
2 38038  98.4977 232.6433 0006222 353.4934  67.2455 14.36838967653653
ZIYUAN 3-1 (ZY 3-1)     
1 38046U 12001A   24164.21003458  .00015563  00000+0  50851-3 0  9996
2 38046  97.2459 226.2678 0006098 147.4944 212.6674 15.31804233690179
ARIRANG-3 (KOMPSAT-3)   
1 38338U 12025B   24164.28393484  .00001112  00000+0  22727-3 0  9990
2 38338  98.2620 110.5526 0008819 253.4594 106.5639 14.62811138644023
KANOPUS-V 1             
1 38707U 12039A   24164.27010945  .00029526  00000+0  55004-3 0  9995
2 38707  97.4969 102.5746 0004368  86.2976 273.8774 15.48787933660459
EXACTVIEW-1 (ADS-1B)    
1 38709U 12039C   24164.25849223  .00000305  00000+0  15129-3 0  9992
2 38709  98.9510 256.0245 0011853 126.8558 233.3709 14.24464919618059
SPOT 6                  
1 38755U 12047A   24164.20019064  .00000805  00000+0  18324-3 0  9994
2 38755  98.2225 230.8967 0001033  90.1819 269.9499 14.58526889625948
PLEIADES 1B             
1 39019U 12068A   24164.21934086  .00000810  00000+0  18399-3 0  9990
2 39019  98.1960 238.7903 0001208  94.4436 265.6901 14.58546508613713
GOKTURK 2               
1 39030U 12073A   24164.20731965  .00000958  00000+0  15319-3 0  9991
2 39030  97.7536  25.3295 0001371 112.0616 248.0739 14.73923954616204
LANDSAT 8               
1 39084U 13008A   24164.19202742  .00000747  00000+0  17589-3 0  9990
2 39084  98.2290 233.8584 0001153  88.8225 271.3106 14.57119297602680
SARAL                   
1 39086U 13009A   24164.19063613  .00000223  00000+0  98435-4 0  9994
2 39086  98.5511 349.3751 0001060 334.5368  25.5763 14.32427179590369
GAOFEN-1                
1 39150U 13018A   24164.25073281  .00001467  00000+0  21742-3 0  9992
2 39150  97.9893 236.6684 0021402 112.1230 248.2254 14.76472194599835
